{
  "norad_id": 57671,
  "name": "STARLINK-30296",
  "history": [
    {
      "epoch": "2026-03-28T08:47:44.447424Z",
      "apogee_km": 476.0069298481976,
      "perigee_km": 474.47314406732585,
      "latitude_deg": 2.188242588774899e-05,
      "longitude_deg": 162.53915724960288,
      "height_km": 475.9444745600174,
      "semi_major_axis_km": 6853.377036957761,
      "eccentricity": 0.0001119,
      "inclination_deg": 53.16,
      "raan_deg": 120.2623,
      "arg_perigee_deg": 75.3553,
      "mean_anomaly_deg": 284.7572,
      "mean_motion_rev_day": 15.30191638
    },
    {
      "epoch": "2026-03-29T05:10:25.850208Z",
      "apogee_km": 476.0799071482015,
      "perigee_km": 474.3789016066348,
      "latitude_deg": 1.6601593202053654e-07,
      "longitude_deg": -147.9157722661687,
      "height_km": 475.95703861280896,
      "semi_major_axis_km": 6853.366404377418,
      "eccentricity": 0.0001241,
      "inclination_deg": 53.1604,
      "raan_deg": 116.3168,
      "arg_perigee_deg": 78.4315,
      "mean_anomaly_deg": 281.6825,
      "mean_motion_rev_day": 15.30195199
    },
    {
      "epoch": "2026-03-30T01:33:07.600320Z",
      "apogee_km": 476.0839474777067,
      "perigee_km": 474.3911639624439,
      "latitude_deg": 6.909082508443962e-05,
      "longitude_deg": -98.36908480277143,
      "height_km": 475.9608313223462,
      "semi_major_axis_km": 6853.3745557200755,
      "eccentricity": 0.0001235,
      "inclination_deg": 53.1604,
      "raan_deg": 112.3743,
      "arg_perigee_deg": 78.0732,
      "mean_anomaly_deg": 282.0408,
      "mean_motion_rev_day": 15.30192469
    },
    {
      "epoch": "2026-03-30T06:15:17.280288Z",
      "apogee_km": 476.08340054397104,
      "perigee_km": 474.39842904983925,
      "latitude_deg": 4.0825661626057736e-05,
      "longitude_deg": -170.0128714044688,
      "height_km": 475.9647076470205,
      "semi_major_axis_km": 6853.377914796904,
      "eccentricity": 0.00012293,
      "inclination_deg": 53.1605,
      "raan_deg": 111.464,
      "arg_perigee_deg": 78.0515,
      "mean_anomaly_deg": 282.0624,
      "mean_motion_rev_day": 15.30191344
    },
    {
      "epoch": "2026-03-30T07:49:20.412480Z",
      "apogee_km": 476.0959909018238,
      "perigee_km": 474.3812763182941,
      "latitude_deg": -3.099883173382243e-05,
      "longitude_deg": 166.1065479142339,
      "height_km": 475.9727239744943,
      "semi_major_axis_km": 6853.375633610059,
      "eccentricity": 0.0001251,
      "inclination_deg": 53.1606,
      "raan_deg": 111.1609,
      "arg_perigee_deg": 78.9646,
      "mean_anomaly_deg": 281.1495,
      "mean_motion_rev_day": 15.30192108
    },
    {
      "epoch": "2026-03-30T18:47:42.643680Z",
      "apogee_km": 476.1169980498471,
      "perigee_km": 474.3466358170572,
      "latitude_deg": -1.601742717835908e-06,
      "longitude_deg": -1.0601982639559169,
      "height_km": 475.9968945607357,
      "semi_major_axis_km": 6853.368816933452,
      "eccentricity": 0.00012916,
      "inclination_deg": 53.161,
      "raan_deg": 109.0374,
      "arg_perigee_deg": 81.3522,
      "mean_anomaly_deg": 278.7625,
      "mean_motion_rev_day": 15.30194391
    },
    {
      "epoch": "2026-03-31T18:18:32.547744Z",
      "apogee_km": 476.1463571006825,
      "perigee_km": 474.46178128587417,
      "latitude_deg": -5.419438208097649e-05,
      "longitude_deg": 0.7146502668226827,
      "height_km": 476.10970892604934,
      "semi_major_axis_km": 6853.441069193278,
      "eccentricity": 0.0001229,
      "inclination_deg": 53.1608,
      "raan_deg": 104.4859,
      "arg_perigee_deg": 83.6892,
      "mean_anomaly_deg": 276.4248,
      "mean_motion_rev_day": 15.30170193
    },
    {
      "epoch": "2026-04-01T17:49:16.901472Z",
      "apogee_km": 475.76463838989366,
      "perigee_km": 474.54064086025755,
      "latitude_deg": -3.2810077896895833e-06,
      "longitude_deg": 2.5136655563960173,
      "height_km": 476.06730904950854,
      "semi_major_axis_km": 6853.289639625075,
      "eccentricity": 8.93e-05,
      "inclination_deg": 53.1609,
      "raan_deg": 99.9353,
      "arg_perigee_deg": 91.4964,
      "mean_anomaly_deg": 268.6139,
      "mean_motion_rev_day": 15.30220909
    },
    {
      "epoch": "2026-04-02T18:54:10.527840Z",
      "apogee_km": 476.2020488105891,
      "perigee_km": 474.3708140697081,
      "latitude_deg": 2.6625187740128893e-05,
      "longitude_deg": -19.593917680664752,
      "height_km": 476.22409978211107,
      "semi_major_axis_km": 6853.423431440148,
      "eccentricity": 0.0001336,
      "inclination_deg": 53.1599,
      "raan_deg": 95.0812,
      "arg_perigee_deg": 92.4855,
      "mean_anomaly_deg": 267.6299,
      "mean_motion_rev_day": 15.301761
    },
    {
      "epoch": "2026-04-02T18:54:10.528704Z",
      "apogee_km": 476.2021828927618,
      "perigee_km": 474.3706740157422,
      "latitude_deg": 2.476740390606681e-05,
      "longitude_deg": -19.59392267463907,
      "height_km": 476.22410274270106,
      "semi_major_axis_km": 6853.423428454252,
      "eccentricity": 0.00013362,
      "inclination_deg": 53.1599,
      "raan_deg": 95.0812,
      "arg_perigee_deg": 92.4855,
      "mean_anomaly_deg": 267.6299,
      "mean_motion_rev_day": 15.30176101
    },
    {
      "epoch": "2026-04-03T16:50:55.041216Z",
      "apogee_km": 476.118604010484,
      "perigee_km": 474.31480131594253,
      "latitude_deg": 6.370663588971936e-06,
      "longitude_deg": 6.074117126317229,
      "height_km": 475.9848161458744,
      "semi_major_axis_km": 6853.353702663213,
      "eccentricity": 0.0001316,
      "inclination_deg": 53.1605,
      "raan_deg": 90.836,
      "arg_perigee_deg": 81.7143,
      "mean_anomaly_deg": 278.4007,
      "mean_motion_rev_day": 15.30199453
    },
    {
      "epoch": "2026-04-04T08:31:26.585184Z",
      "apogee_km": 476.2119837010796,
      "perigee_km": 474.29330873572417,
      "latitude_deg": 2.158105818130029e-05,
      "longitude_deg": 127.26412791010445,
      "height_km": 476.34809447297056,
      "semi_major_axis_km": 6853.389646218402,
      "eccentricity": 0.00013998,
      "inclination_deg": 53.1598,
      "raan_deg": 87.8012,
      "arg_perigee_deg": 101.8832,
      "mean_anomaly_deg": 258.2326,
      "mean_motion_rev_day": 15.30187415
    },
    {
      "epoch": "2026-04-05T06:28:12.700416Z",
      "apogee_km": 476.3331874658188,
      "perigee_km": 474.3580137803192,
      "latitude_deg": -1.0134890173618841e-05,
      "longitude_deg": 152.92036031305466,
      "height_km": 476.4235047958717,
      "semi_major_axis_km": 6853.482600623069,
      "eccentricity": 0.0001441,
      "inclination_deg": 53.1611,
      "raan_deg": 83.5509,
      "arg_perigee_deg": 100.4976,
      "mean_anomaly_deg": 259.6187,
      "mean_motion_rev_day": 15.30156284
    },
    {
      "epoch": "2026-04-06T05:58:59.332512Z",
      "apogee_km": 476.071702956373,
      "perigee_km": 474.3916681567953,
      "latitude_deg": -1.0816100236504313e-05,
      "longitude_deg": 154.71261479638972,
      "height_km": 476.6577814324834,
      "semi_major_axis_km": 6853.368685556584,
      "eccentricity": 0.00012257,
      "inclination_deg": 53.1595,
      "raan_deg": 79.0031,
      "arg_perigee_deg": 128.9139,
      "mean_anomaly_deg": 231.1971,
      "mean_motion_rev_day": 15.30194435
    },
    {
      "epoch": "2026-04-07T05:29:46.968576Z",
      "apogee_km": 475.89292516029855,
      "perigee_km": 474.5313017584358,
      "latitude_deg": 3.775022640503819e-05,
      "longitude_deg": 156.4973107112986,
      "height_km": 476.0977208188566,
      "semi_major_axis_km": 6853.349113459367,
      "eccentricity": 9.934e-05,
      "inclination_deg": 53.1599,
      "raan_deg": 74.4519,
      "arg_perigee_deg": 88.9205,
      "mean_anomaly_deg": 271.191,
      "mean_motion_rev_day": 15.3020099
    },
    {
      "epoch": "2026-04-08T08:08:41.551584Z",
      "apogee_km": 476.0406508898632,
      "perigee_km": 474.4306565860461,
      "latitude_deg": 4.749318794334232e-05,
      "longitude_deg": 110.5164706480612,
      "height_km": 476.0415656728084,
      "semi_major_axis_km": 6853.372653737954,
      "eccentricity": 0.00011746,
      "inclination_deg": 53.1605,
      "raan_deg": 69.2929,
      "arg_perigee_deg": 83.4125,
      "mean_anomaly_deg": 276.701,
      "mean_motion_rev_day": 15.30193106
    },
    {
      "epoch": "2026-04-09T07:39:29.867616Z",
      "apogee_km": 476.0949721526713,
      "perigee_km": 474.3825876803021,
      "latitude_deg": 3.895998925031787e-05,
      "longitude_deg": 112.30458262908917,
      "height_km": 475.92818361768803,
      "semi_major_axis_km": 6853.375779916487,
      "eccentricity": 0.00012493,
      "inclination_deg": 53.1617,
      "raan_deg": 64.748,
      "arg_perigee_deg": 75.876,
      "mean_anomaly_deg": 284.238,
      "mean_motion_rev_day": 15.30192059
    },
    {
      "epoch": "2026-04-10T07:10:18.667488Z",
      "apogee_km": 476.0762364424281,
      "perigee_km": 474.4103167647909,
      "latitude_deg": -6.198426908998701e-05,
      "longitude_deg": 114.07840452003364,
      "height_km": 476.19143132154403,
      "semi_major_axis_km": 6853.380276603609,
      "eccentricity": 0.00012154,
      "inclination_deg": 53.1612,
      "raan_deg": 60.1909,
      "arg_perigee_deg": 93.4323,
      "mean_anomaly_deg": 266.6816,
      "mean_motion_rev_day": 15.30190553
    },
    {
      "epoch": "2026-04-11T17:39:24.755616Z",
      "apogee_km": 476.6237563424447,
      "perigee_km": 473.65628739197564,
      "latitude_deg": -2.817849294000498e-05,
      "longitude_deg": -51.2944899431299,
      "height_km": 477.1755132649792,
      "semi_major_axis_km": 6853.277021867209,
      "eccentricity": 0.0002165,
      "inclination_deg": 53.1613,
      "raan_deg": 53.5096,
      "arg_perigee_deg": 140.0507,
      "mean_anomaly_deg": 220.0653,
      "mean_motion_rev_day": 15.30225135
    }
  ]
}